[
  {
    "OBJECT_NAME": "STARLINK-1143",
    "OBJECT_ID": "20012B",
    "EPOCH": "2025-11-11T00:31:05.384640",
    "MEAN_MOTION": 15.42024997,
    "ECCENTRICITY": 0.0008476,
    "INCLINATION": 53.0561,
    "RA_OF_ASC_NODE": 180.4344,
    "ARG_OF_PERICENTER": 92.4981,
    "MEAN_ANOMALY": 267.6994,
    "EPHEMERIS_TYPE": 0,
    "CLASSIFICATION_TYPE": "U",
    "NORAD_CAT_ID": 45179,
    "ELEMENT_SET_NO": 999,
    "REV_AT_EPOCH": 31750,
    "BSTAR": 0.0010909000000000001,
    "MEAN_MOTION_DOT": 0.00047194,
    "MEAN_MOTION_DDOT": 0.0,
    "TLE_LINE1": "1 45179U 20012B   25315.02159010  .00047194  00000+0  10909-2 0  9990",
    "TLE_LINE2": "2 45179  53.0561 180.4344 0008476  92.4981 267.6994 15.42024997317502",
    "COMMENT": "Grouped by shell and plane from TLE"
  },
  {
    "OBJECT_NAME": "STARLINK-1654",
    "OBJECT_ID": "20062B",
    "EPOCH": "2025-11-11T00:39:39.509568",
    "MEAN_MOTION": 15.37590966,
    "ECCENTRICITY": 0.0002545,
    "INCLINATION": 53.0523,
    "RA_OF_ASC_NODE": 185.3978,
    "ARG_OF_PERICENTER": 128.8886,
    "MEAN_ANOMALY": 231.2344,
    "EPHEMERIS_TYPE": 0,
    "CLASSIFICATION_TYPE": "U",
    "NORAD_CAT_ID": 46326,
    "ELEMENT_SET_NO": 999,
    "REV_AT_EPOCH": 28648,
    "BSTAR": 0.0026418,
    "MEAN_MOTION_DOT": 0.00099824,
    "MEAN_MOTION_DDOT": 0.0,
    "TLE_LINE1": "1 46326U 20062B   25315.02754062  .00099824  00000+0  26418-2 0  9997",
    "TLE_LINE2": "2 46326  53.0523 185.3978 0002545 128.8886 231.2344 15.37590966286487",
    "COMMENT": "Grouped by shell and plane from TLE"
  },
  {
    "OBJECT_NAME": "STARLINK-1719",
    "OBJECT_ID": "20062G",
    "EPOCH": "2025-11-11T05:50:51.672768",
    "MEAN_MOTION": 15.32899295,
    "ECCENTRICITY": 0.0006257,
    "INCLINATION": 53.0531,
    "RA_OF_ASC_NODE": 183.0503,
    "ARG_OF_PERICENTER": 140.7031,
    "MEAN_ANOMALY": 219.4425,
    "EPHEMERIS_TYPE": 0,
    "CLASSIFICATION_TYPE": "U",
    "NORAD_CAT_ID": 46331,
    "ELEMENT_SET_NO": 999,
    "REV_AT_EPOCH": 28653,
    "BSTAR": 0.0029259000000000004,
    "MEAN_MOTION_DOT": 0.0009516,
    "MEAN_MOTION_DDOT": 0.0,
    "TLE_LINE1": "1 46331U 20062G   25315.24365362  .00095160  00000+0  29259-2 0  9993",
    "TLE_LINE2": "2 46331  53.0531 183.0503 0006257 140.7031 219.4425 15.32899295286536",
    "COMMENT": "Grouped by shell and plane from TLE"
  },
  {
    "OBJECT_NAME": "STARLINK-1723",
    "OBJECT_ID": "20062J",
    "EPOCH": "2025-11-11T02:42:10.582272",
    "MEAN_MOTION": 15.40856895,
    "ECCENTRICITY": 0.0002293,
    "INCLINATION": 53.0533,
    "RA_OF_ASC_NODE": 185.4793,
    "ARG_OF_PERICENTER": 121.8806,
    "MEAN_ANOMALY": 238.2421,
    "EPHEMERIS_TYPE": 0,
    "CLASSIFICATION_TYPE": "U",
    "NORAD_CAT_ID": 46333,
    "ELEMENT_SET_NO": 999,
    "REV_AT_EPOCH": 28648,
    "BSTAR": 0.0023645,
    "MEAN_MOTION_DOT": 0.00099417,
    "MEAN_MOTION_DDOT": 0.0,
    "TLE_LINE1": "1 46333U 20062J   25315.11262248  .00099417  00000+0  23645-2 0  9992",
    "TLE_LINE2": "2 46333  53.0533 185.4793 0002293 121.8806 238.2421 15.40856895286480",
    "COMMENT": "Grouped by shell and plane from TLE"
  },
  {
    "OBJECT_NAME": "STARLINK-1727",
    "OBJECT_ID": "20062L",
    "EPOCH": "2025-11-11T08:00:03.000384",
    "MEAN_MOTION": 15.3650353,
    "ECCENTRICITY": 0.0001529,
    "INCLINATION": 53.0541,
    "RA_OF_ASC_NODE": 185.4093,
    "ARG_OF_PERICENTER": 115.704,
    "MEAN_ANOMALY": 93.394,
    "EPHEMERIS_TYPE": 0,
    "CLASSIFICATION_TYPE": "U",
    "NORAD_CAT_ID": 46335,
    "ELEMENT_SET_NO": 999,
    "REV_AT_EPOCH": 575,
    "BSTAR": 0.0016854,
    "MEAN_MOTION_DOT": 0.00061022,
    "MEAN_MOTION_DDOT": 0.0,
    "TLE_LINE1": "1 46335U 20062L   25315.33336806  .00061022  00000+0  16854-2 0  9995",
    "TLE_LINE2": "2 46335  53.0541 185.4093 0001529 115.7040  93.3940 15.36503530  5752",
    "COMMENT": "Grouped by shell and plane from TLE"
  },
  {
    "OBJECT_NAME": "STARLINK-1752",
    "OBJECT_ID": "20062P",
    "EPOCH": "2025-11-11T03:44:04.371360",
    "MEAN_MOTION": 15.40396396,
    "ECCENTRICITY": 0.0001329,
    "INCLINATION": 53.0527,
    "RA_OF_ASC_NODE": 185.5482,
    "ARG_OF_PERICENTER": 135.8354,
    "MEAN_ANOMALY": 224.2756,
    "EPHEMERIS_TYPE": 0,
    "CLASSIFICATION_TYPE": "U",
    "NORAD_CAT_ID": 46338,
    "ELEMENT_SET_NO": 999,
    "REV_AT_EPOCH": 28648,
    "BSTAR": 0.0022249,
    "MEAN_MOTION_DOT": 0.00092013,
    "MEAN_MOTION_DDOT": 0.0,
    "TLE_LINE1": "1 46338U 20062P   25315.15560615  .00092013  00000+0  22249-2 0  9994",
    "TLE_LINE2": "2 46338  53.0527 185.5482 0001329 135.8354 224.2756 15.40396396286487",
    "COMMENT": "Grouped by shell and plane from TLE"
  },
  {
    "OBJECT_NAME": "STARLINK-1657",
    "OBJECT_ID": "20062AF",
    "EPOCH": "2025-11-11T01:01:04.183392",
    "MEAN_MOTION": 15.39461978,
    "ECCENTRICITY": 0.0002517,
    "INCLINATION": 53.0525,
    "RA_OF_ASC_NODE": 184.3864,
    "ARG_OF_PERICENTER": 122.3725,
    "MEAN_ANOMALY": 237.7522,
    "EPHEMERIS_TYPE": 0,
    "CLASSIFICATION_TYPE": "U",
    "NORAD_CAT_ID": 46354,
    "ELEMENT_SET_NO": 999,
    "REV_AT_EPOCH": 28649,
    "BSTAR": 0.0024504,
    "MEAN_MOTION_DOT": 0.00098387,
    "MEAN_MOTION_DDOT": 0.0,
    "TLE_LINE1": "1 46354U 20062AF  25315.04240953  .00098387  00000+0  24504-2 0  9996",
    "TLE_LINE2": "2 46354  53.0525 184.3864 0002517 122.3725 237.7522 15.39461978286495",
    "COMMENT": "Grouped by shell and plane from TLE"
  },
  {
    "OBJECT_NAME": "STARLINK-1665",
    "OBJECT_ID": "20062AH",
    "EPOCH": "2025-11-11T04:13:52.917888",
    "MEAN_MOTION": 15.36151052,
    "ECCENTRICITY": 0.0002888,
    "INCLINATION": 53.0528,
    "RA_OF_ASC_NODE": 184.6619,
    "ARG_OF_PERICENTER": 133.8122,
    "MEAN_ANOMALY": 226.3119,
    "EPHEMERIS_TYPE": 0,
    "CLASSIFICATION_TYPE": "U",
    "NORAD_CAT_ID": 46356,
    "ELEMENT_SET_NO": 999,
    "REV_AT_EPOCH": 28650,
    "BSTAR": 0.0023748,
    "MEAN_MOTION_DOT": 0.00085451,
    "MEAN_MOTION_DDOT": 0.0,
    "TLE_LINE1": "1 46356U 20062AH  25315.17630692  .00085451  00000+0  23748-2 0  9992",
    "TLE_LINE2": "2 46356  53.0528 184.6619 0002888 133.8122 226.3119 15.36151052286504",
    "COMMENT": "Grouped by shell and plane from TLE"
  },
  {
    "OBJECT_NAME": "STARLINK-1771",
    "OBJECT_ID": "20062BM",
    "EPOCH": "2025-11-11T03:19:22.931040",
    "MEAN_MOTION": 15.28846443,
    "ECCENTRICITY": 0.0004199,
    "INCLINATION": 53.0469,
    "RA_OF_ASC_NODE": 184.0786,
    "ARG_OF_PERICENTER": 145.2954,
    "MEAN_ANOMALY": 214.8319,
    "EPHEMERIS_TYPE": 0,
    "CLASSIFICATION_TYPE": "U",
    "NORAD_CAT_ID": 46384,
    "ELEMENT_SET_NO": 999,
    "REV_AT_EPOCH": 28650,
    "BSTAR": 0.0020571,
    "MEAN_MOTION_DOT": 0.00058559,
    "MEAN_MOTION_DDOT": 0.0,
    "TLE_LINE1": "1 46384U 20062BM  25315.13845985  .00058559  00000+0  20571-2 0  9992",
    "TLE_LINE2": "2 46384  53.0469 184.0786 0004199 145.2954 214.8319 15.28846443286505",
    "COMMENT": "Grouped by shell and plane from TLE"
  },
  {
    "OBJECT_NAME": "STARLINK-1955",
    "OBJECT_ID": "21009J",
    "EPOCH": "2025-11-11T01:32:30.763680",
    "MEAN_MOTION": 15.44105752,
    "ECCENTRICITY": 0.0011882,
    "INCLINATION": 53.05,
    "RA_OF_ASC_NODE": 187.4134,
    "ARG_OF_PERICENTER": 97.8997,
    "MEAN_ANOMALY": 262.3357,
    "EPHEMERIS_TYPE": 0,
    "CLASSIFICATION_TYPE": "U",
    "NORAD_CAT_ID": 47556,
    "ELEMENT_SET_NO": 999,
    "REV_AT_EPOCH": 26301,
    "BSTAR": 0.0024187,
    "MEAN_MOTION_DOT": 0.00113903,
    "MEAN_MOTION_DDOT": 0.0,
    "TLE_LINE1": "1 47556U 21009J   25315.06424495  .00113903  00000+0  24187-2 0  9999",
    "TLE_LINE2": "2 47556  53.0500 187.4134 0011882  97.8997 262.3357 15.44105752263013",
    "COMMENT": "Grouped by shell and plane from TLE"
  },
  {
    "OBJECT_NAME": "STARLINK-1964",
    "OBJECT_ID": "21009T",
    "EPOCH": "2025-11-11T01:28:53.510880",
    "MEAN_MOTION": 15.40266537,
    "ECCENTRICITY": 0.0001061,
    "INCLINATION": 53.0522,
    "RA_OF_ASC_NODE": 181.319,
    "ARG_OF_PERICENTER": 120.0176,
    "MEAN_ANOMALY": 240.0933,
    "EPHEMERIS_TYPE": 0,
    "CLASSIFICATION_TYPE": "U",
    "NORAD_CAT_ID": 47565,
    "ELEMENT_SET_NO": 999,
    "REV_AT_EPOCH": 26309,
    "BSTAR": 0.0025047999999999997,
    "MEAN_MOTION_DOT": 0.00103347,
    "MEAN_MOTION_DDOT": 0.0,
    "TLE_LINE1": "1 47565U 21009T   25315.06173045  .00103347  00000+0  25048-2 0  9999",
    "TLE_LINE2": "2 47565  53.0522 181.3190 0001061 120.0176 240.0933 15.40266537263094",
    "COMMENT": "Grouped by shell and plane from TLE"
  },
  {
    "OBJECT_NAME": "STARLINK-1991",
    "OBJECT_ID": "21009AR",
    "EPOCH": "2025-11-11T08:00:03.000384",
    "MEAN_MOTION": 15.31162248,
    "ECCENTRICITY": 0.0001256,
    "INCLINATION": 53.0536,
    "RA_OF_ASC_NODE": 181.2155,
    "ARG_OF_PERICENTER": 71.9535,
    "MEAN_ANOMALY": 233.9091,
    "EPHEMERIS_TYPE": 0,
    "CLASSIFICATION_TYPE": "U",
    "NORAD_CAT_ID": 47587,
    "ELEMENT_SET_NO": 999,
    "REV_AT_EPOCH": 575,
    "BSTAR": 0.049037,
    "MEAN_MOTION_DOT": 0.01652115,
    "MEAN_MOTION_DDOT": 0.0,
    "TLE_LINE1": "1 47587U 21009AR  25315.33336806  .01652115  00000+0  49037-1 0  9995",
    "TLE_LINE2": "2 47587  53.0536 181.2155 0001256  71.9535 233.9091 15.31162248  5759",
    "COMMENT": "Grouped by shell and plane from TLE"
  },
  {
    "OBJECT_NAME": "STARLINK-2021",
    "OBJECT_ID": "21009BJ",
    "EPOCH": "2025-11-10T22:23:02.896224",
    "MEAN_MOTION": 15.3107565,
    "ECCENTRICITY": 0.0002532,
    "INCLINATION": 53.055,
    "RA_OF_ASC_NODE": 182.2944,
    "ARG_OF_PERICENTER": 121.1307,
    "MEAN_ANOMALY": 238.9941,
    "EPHEMERIS_TYPE": 0,
    "CLASSIFICATION_TYPE": "U",
    "NORAD_CAT_ID": 47604,
    "ELEMENT_SET_NO": 999,
    "REV_AT_EPOCH": 26307,
    "BSTAR": 0.0027599,
    "MEAN_MOTION_DOT": 0.00084598,
    "MEAN_MOTION_DDOT": 0.0,
    "TLE_LINE1": "1 47604U 21009BJ  25314.93267241  .00084598  00000+0  27599-2 0  9999",
    "TLE_LINE2": "2 47604  53.0550 182.2944 0002532 121.1307 238.9941 15.31075650263075",
    "COMMENT": "Grouped by shell and plane from TLE"
  }
]